{"spkid": "50405108", "covariance": {"epoch": "2456118.5", "data": [["1.45136412723179E-14", "-1.799654245162678E-14", "-2.522240948003053E-12", "-3.017080010489711E-13", "-2.223928926194677E-12", "4.242389664104327E-13"], ["-1.799654245162678E-14", "2.233535291500862E-14", "2.957264706145394E-12", "3.721033687290186E-13", "2.66065514287055E-12", "-5.246444978844229E-13"], ["-2.522240948003053E-12", "2.957264706145394E-12", "3.054708797116719E-9", "-1.578352555636961E-11", "1.992319585887826E-9", "-1.665021397702971E-10"], ["-3.017080010489711E-13", "3.721033687290186E-13", "-1.578352555636961E-11", "1.542053638844062E-10", "-1.113217512269413E-10", "-1.33048251180586E-10"], ["-2.223928926194677E-12", "2.66065514287055E-12", "1.992319585887826E-9", "-1.113217512269413E-10", "1.4562058603124E-9", "-1.522794094931714E-11"], ["4.242389664104327E-13", "-5.246444978844229E-13", "-1.665021397702971E-10", "-1.33048251180586E-10", "-1.522794094931714E-11", "1.50710218346666E-9"]], "elements": [{"label": "e", "units": null, "title": "eccentricity", "value": ".2433378232384008", "name": "e", "sigma": 1.2047257477251e-07}, {"label": "q", "sigma": 1.49450168668385e-07, "name": "q", "units": "au", "title": "perihelion distance", "value": ".9370597438188555"}, {"label": "tp", "units": "TDB", "title": "time of perihelion passage", "value": "2455884.911076607258", "sigma": 5.52694200902879e-05, "name": "tp"}, {"label": "node", "units": "deg", "title": "longitude of the ascending node", "value": "347.8119285852159", "sigma": 1.24179452360045e-05, "name": "om"}, {"units": "deg", "title": "argument of perihelion", "value": "42.69873952397565", "sigma": 3.81602654643859e-05, "name": "w", "label": "peri"}, {"label": "i", "name": "i", "sigma": 3.88214139807743e-05, "units": "deg", "title": "inclination", "value": "33.13274369594359"}], "labels": ["e", "q", "tp", "node", "peri", "i"]}, "elements": [{"label": "e", "sigma": "1.2042E-7", "name": "e", "title": "eccentricity", "value": ".2432799474872336", "units": null}, {"label": "a", "value": "1.23811470409469", "title": "semi-major axis", "units": "au", "sigma": "5.9639E-9", "name": "a"}, {"sigma": "1.4946E-7", "name": "q", "units": "au", "value": ".9369062238993618", "title": "perihelion distance", "label": "q"}, {"label": "i", "sigma": "3.8821E-5", "name": "i", "value": "33.13242949643472", "title": "inclination; angle with respect to x-y ecliptic plane", "units": "deg"}, {"label": "node", "units": "deg", "value": "347.7625522052905", "title": "longitude of the ascending node", "sigma": "1.241E-5", "name": "om"}, {"value": "42.75382238739095", "title": "argument of perihelion", "units": "deg", "name": "w", "sigma": "3.8212E-5", "label": "peri"}, {"label": "M", "units": "deg", "value": "202.3410807159445", "title": "mean anomaly", "sigma": "2.8314E-5", "name": "ma"}, {"label": "tp", "units": "TDB", "title": "time of perihelion passage", "value": "2461420.871685546779", "sigma": "3.9535E-5", "name": "tp"}, {"sigma": "3.6358E-6", "name": "per", "title": "sidereal orbital period", "value": "503.1989763541643", "units": "d", "label": "period"}, {"units": "deg/d", "title": "mean motion", "value": ".7154227590213197", "name": "n", "sigma": "5.1692E-9", "label": "n"}, {"units": "au", "title": "aphelion distance", "value": "1.539323184290017", "sigma": "7.4148E-9", "name": "ad", "label": "Q"}], "epoch": "2461200.5"}